STARLINK-36542          
1 67445U 26008A   26044.50003471 -.02055292  00000+0 -51741-1 0  9993
2 67445  43.0007 342.3441 0001520 278.5425 201.6724 15.42743127  5917
STARLINK-36539          
1 67446U 26008B   26044.50003471 -.01989780  00000+0 -62336-1 0  9993
2 67446  42.9999 342.3922 0001281 273.0879 186.8532 15.36042251  5911
STARLINK-36440          
1 67447U 26008C   26044.50003471 -.02049617  00000+0 -49395-1 0  9991
2 67447  43.0006 341.8183 0001058 253.5292  79.5549 15.44015524  5918
STARLINK-36423          
1 67448U 26008D   26043.00096519  .00071866  00000+0  12205-2 0  9999
2 67448  42.9995 351.1629 0001096 233.8361 126.2398 15.50558051  5638
STARLINK-36519          
1 67449U 26008E   26044.50003471 -.02123299  00000+0 -62990-1 0  9998
2 67449  42.9998 342.0685 0000907 274.3251 316.0433 15.37369483  5915
STARLINK-36525          
1 67450U 26008F   26044.50003471 -.02035751  00000+0 -44741-1 0  9999
2 67450  42.9999 342.2829 0001541 277.5285 226.7510 15.46649813  5918
STARLINK-36511          
1 67451U 26008G   26044.50003471 -.01938932  00000+0 -48427-1 0  9997
2 67451  43.0009 342.4306 0001736 268.9538 175.6794 15.42765684  5913
STARLINK-36524          
1 67452U 26008H   26044.50003471 -.02015790  00000+0 -59543-1 0  9998
2 67452  43.0001 342.3762 0001524 272.6835 193.0146 15.37889317  5917
STARLINK-36518          
1 67453U 26008J   26044.50003471 -.01854387  00000+0 -66143-1 0  9995
2 67453  43.0005 342.0598 0001067 282.8805 304.5048 15.31731274  5932
STARLINK-36517          
1 67454U 26008K   26044.50003471 -.02057545  00000+0 -44885-1 0  9997
2 67454  43.0007 342.4474 0001612 269.5002 167.4428 15.46899484  5931
STARLINK-36516          
1 67455U 26008L   26043.89557133  .00086976  00000+0  14676-2 0  9990
2 67455  42.9995 345.8319 0001884 232.1478 127.9212 15.50661786  5776
STARLINK-36493          
1 67456U 26008M   26044.21532215  .00082808  00000+0  14006-2 0  9999
2 67456  43.0034 343.9275 0003267 253.2584 106.7918 15.50613690  5827
