CCSDS_OMM_VERS = 2.0
CREATION_DATE  = 
ORIGINATOR     = 

OBJECT_NAME    = STARLINK-36542
OBJECT_ID      = 2026-008A
CENTER_NAME    = EARTH
REF_FRAME      = TEME
TIME_SYSTEM    = UTC
MEAN_ELEMENT_THEORY = SGP/SGP4

EPOCH          = 2026-02-13T12:00:02.998944
MEAN_MOTION    = 15.42743127
ECCENTRICITY   = .000152
INCLINATION    = 43.0007
RA_OF_ASC_NODE = 342.3441
ARG_OF_PERICENTER = 278.5425
MEAN_ANOMALY   = 201.6724

EPHEMERIS_TYPE = 0
CLASSIFICATION_TYPE = U
NORAD_CAT_ID   = 67445
ELEMENT_SET_NO = 999
REV_AT_EPOCH   = 591
BSTAR          = -.51741E-1
MEAN_MOTION_DOT = -.2055292E-1
MEAN_MOTION_DDOT = 0

CCSDS_OMM_VERS = 2.0
CREATION_DATE  = 
ORIGINATOR     = 

OBJECT_NAME    = STARLINK-36539
OBJECT_ID      = 2026-008B
CENTER_NAME    = EARTH
REF_FRAME      = TEME
TIME_SYSTEM    = UTC
MEAN_ELEMENT_THEORY = SGP/SGP4

EPOCH          = 2026-02-13T12:00:02.998944
MEAN_MOTION    = 15.36042251
ECCENTRICITY   = .0001281
INCLINATION    = 42.9999
RA_OF_ASC_NODE = 342.3922
ARG_OF_PERICENTER = 273.0879
MEAN_ANOMALY   = 186.8532

EPHEMERIS_TYPE = 0
CLASSIFICATION_TYPE = U
NORAD_CAT_ID   = 67446
ELEMENT_SET_NO = 999
REV_AT_EPOCH   = 591
BSTAR          = -.62336E-1
MEAN_MOTION_DOT = -.198978E-1
MEAN_MOTION_DDOT = 0

CCSDS_OMM_VERS = 2.0
CREATION_DATE  = 
ORIGINATOR     = 

OBJECT_NAME    = STARLINK-36440
OBJECT_ID      = 2026-008C
CENTER_NAME    = EARTH
REF_FRAME      = TEME
TIME_SYSTEM    = UTC
MEAN_ELEMENT_THEORY = SGP/SGP4

EPOCH          = 2026-02-13T12:00:02.998944
MEAN_MOTION    = 15.44015524
ECCENTRICITY   = .0001058
INCLINATION    = 43.0006
RA_OF_ASC_NODE = 341.8183
ARG_OF_PERICENTER = 253.5292
MEAN_ANOMALY   = 79.5549

EPHEMERIS_TYPE = 0
CLASSIFICATION_TYPE = U
NORAD_CAT_ID   = 67447
ELEMENT_SET_NO = 999
REV_AT_EPOCH   = 591
BSTAR          = -.49395E-1
MEAN_MOTION_DOT = -.2049617E-1
MEAN_MOTION_DDOT = 0

CCSDS_OMM_VERS = 2.0
CREATION_DATE  = 
ORIGINATOR     = 

OBJECT_NAME    = STARLINK-36423
OBJECT_ID      = 2026-008D
CENTER_NAME    = EARTH
REF_FRAME      = TEME
TIME_SYSTEM    = UTC
MEAN_ELEMENT_THEORY = SGP/SGP4

EPOCH          = 2026-02-12T00:01:23.392416
MEAN_MOTION    = 15.50558051
ECCENTRICITY   = .00010965
INCLINATION    = 42.9995
RA_OF_ASC_NODE = 351.1629
ARG_OF_PERICENTER = 233.8361
MEAN_ANOMALY   = 126.2398

EPHEMERIS_TYPE = 0
CLASSIFICATION_TYPE = U
NORAD_CAT_ID   = 67448
ELEMENT_SET_NO = 999
REV_AT_EPOCH   = 563
BSTAR          = .12205114E-2
MEAN_MOTION_DOT = .71866E-3
MEAN_MOTION_DDOT = 0

CCSDS_OMM_VERS = 2.0
CREATION_DATE  = 
ORIGINATOR     = 

OBJECT_NAME    = STARLINK-36519
OBJECT_ID      = 2026-008E
CENTER_NAME    = EARTH
REF_FRAME      = TEME
TIME_SYSTEM    = UTC
MEAN_ELEMENT_THEORY = SGP/SGP4

EPOCH          = 2026-02-13T12:00:02.998944
MEAN_MOTION    = 15.37369483
ECCENTRICITY   = .0000907
INCLINATION    = 42.9998
RA_OF_ASC_NODE = 342.0685
ARG_OF_PERICENTER = 274.3251
MEAN_ANOMALY   = 316.0433

EPHEMERIS_TYPE = 0
CLASSIFICATION_TYPE = U
NORAD_CAT_ID   = 67449
ELEMENT_SET_NO = 999
REV_AT_EPOCH   = 591
BSTAR          = -.6299E-1
MEAN_MOTION_DOT = -.2123299E-1
MEAN_MOTION_DDOT = 0

CCSDS_OMM_VERS = 2.0
CREATION_DATE  = 
ORIGINATOR     = 

OBJECT_NAME    = STARLINK-36525
OBJECT_ID      = 2026-008F
CENTER_NAME    = EARTH
REF_FRAME      = TEME
TIME_SYSTEM    = UTC
MEAN_ELEMENT_THEORY = SGP/SGP4

EPOCH          = 2026-02-13T12:00:02.998944
MEAN_MOTION    = 15.46649813
ECCENTRICITY   = .0001541
INCLINATION    = 42.9999
RA_OF_ASC_NODE = 342.2829
ARG_OF_PERICENTER = 277.5285
MEAN_ANOMALY   = 226.7510

EPHEMERIS_TYPE = 0
CLASSIFICATION_TYPE = U
NORAD_CAT_ID   = 67450
ELEMENT_SET_NO = 999
REV_AT_EPOCH   = 591
BSTAR          = -.44741E-1
MEAN_MOTION_DOT = -.2035751E-1
MEAN_MOTION_DDOT = 0

CCSDS_OMM_VERS = 2.0
CREATION_DATE  = 
ORIGINATOR     = 

OBJECT_NAME    = STARLINK-36511
OBJECT_ID      = 2026-008G
CENTER_NAME    = EARTH
REF_FRAME      = TEME
TIME_SYSTEM    = UTC
MEAN_ELEMENT_THEORY = SGP/SGP4

EPOCH          = 2026-02-13T12:00:02.998944
MEAN_MOTION    = 15.42765684
ECCENTRICITY   = .0001736
INCLINATION    = 43.0009
RA_OF_ASC_NODE = 342.4306
ARG_OF_PERICENTER = 268.9538
MEAN_ANOMALY   = 175.6794

EPHEMERIS_TYPE = 0
CLASSIFICATION_TYPE = U
NORAD_CAT_ID   = 67451
ELEMENT_SET_NO = 999
REV_AT_EPOCH   = 591
BSTAR          = -.48427E-1
MEAN_MOTION_DOT = -.1938932E-1
MEAN_MOTION_DDOT = 0

CCSDS_OMM_VERS = 2.0
CREATION_DATE  = 
ORIGINATOR     = 

OBJECT_NAME    = STARLINK-36524
OBJECT_ID      = 2026-008H
CENTER_NAME    = EARTH
REF_FRAME      = TEME
TIME_SYSTEM    = UTC
MEAN_ELEMENT_THEORY = SGP/SGP4

EPOCH          = 2026-02-13T12:00:02.998944
MEAN_MOTION    = 15.37889317
ECCENTRICITY   = .0001524
INCLINATION    = 43.0001
RA_OF_ASC_NODE = 342.3762
ARG_OF_PERICENTER = 272.6835
MEAN_ANOMALY   = 193.0146

EPHEMERIS_TYPE = 0
CLASSIFICATION_TYPE = U
NORAD_CAT_ID   = 67452
ELEMENT_SET_NO = 999
REV_AT_EPOCH   = 591
BSTAR          = -.59543E-1
MEAN_MOTION_DOT = -.201579E-1
MEAN_MOTION_DDOT = 0

CCSDS_OMM_VERS = 2.0
CREATION_DATE  = 
ORIGINATOR     = 

OBJECT_NAME    = STARLINK-36518
OBJECT_ID      = 2026-008J
CENTER_NAME    = EARTH
REF_FRAME      = TEME
TIME_SYSTEM    = UTC
MEAN_ELEMENT_THEORY = SGP/SGP4

EPOCH          = 2026-02-13T12:00:02.998944
MEAN_MOTION    = 15.31731274
ECCENTRICITY   = .0001067
INCLINATION    = 43.0005
RA_OF_ASC_NODE = 342.0598
ARG_OF_PERICENTER = 282.8805
MEAN_ANOMALY   = 304.5048

EPHEMERIS_TYPE = 0
CLASSIFICATION_TYPE = U
NORAD_CAT_ID   = 67453
ELEMENT_SET_NO = 999
REV_AT_EPOCH   = 593
BSTAR          = -.66143E-1
MEAN_MOTION_DOT = -.1854387E-1
MEAN_MOTION_DDOT = 0

CCSDS_OMM_VERS = 2.0
CREATION_DATE  = 
ORIGINATOR     = 

OBJECT_NAME    = STARLINK-36517
OBJECT_ID      = 2026-008K
CENTER_NAME    = EARTH
REF_FRAME      = TEME
TIME_SYSTEM    = UTC
MEAN_ELEMENT_THEORY = SGP/SGP4

EPOCH          = 2026-02-13T12:00:02.998944
MEAN_MOTION    = 15.46899484
ECCENTRICITY   = .0001612
INCLINATION    = 43.0007
RA_OF_ASC_NODE = 342.4474
ARG_OF_PERICENTER = 269.5002
MEAN_ANOMALY   = 167.4428

EPHEMERIS_TYPE = 0
CLASSIFICATION_TYPE = U
NORAD_CAT_ID   = 67454
ELEMENT_SET_NO = 999
REV_AT_EPOCH   = 593
BSTAR          = -.44885E-1
MEAN_MOTION_DOT = -.2057545E-1
MEAN_MOTION_DDOT = 0

CCSDS_OMM_VERS = 2.0
CREATION_DATE  = 
ORIGINATOR     = 

OBJECT_NAME    = STARLINK-36516
OBJECT_ID      = 2026-008L
CENTER_NAME    = EARTH
REF_FRAME      = TEME
TIME_SYSTEM    = UTC
MEAN_ELEMENT_THEORY = SGP/SGP4

EPOCH          = 2026-02-12T21:29:37.362912
MEAN_MOTION    = 15.50661786
ECCENTRICITY   = .0001884
INCLINATION    = 42.9995
RA_OF_ASC_NODE = 345.8319
ARG_OF_PERICENTER = 232.1478
MEAN_ANOMALY   = 127.9212

EPHEMERIS_TYPE = 0
CLASSIFICATION_TYPE = U
NORAD_CAT_ID   = 67455
ELEMENT_SET_NO = 999
REV_AT_EPOCH   = 577
BSTAR          = .14676E-2
MEAN_MOTION_DOT = .86976E-3
MEAN_MOTION_DDOT = 0

CCSDS_OMM_VERS = 2.0
CREATION_DATE  = 
ORIGINATOR     = 

OBJECT_NAME    = STARLINK-36493
OBJECT_ID      = 2026-008M
CENTER_NAME    = EARTH
REF_FRAME      = TEME
TIME_SYSTEM    = UTC
MEAN_ELEMENT_THEORY = SGP/SGP4

EPOCH          = 2026-02-13T05:10:03.833760
MEAN_MOTION    = 15.50613690
ECCENTRICITY   = .0003267
INCLINATION    = 43.0034
RA_OF_ASC_NODE = 343.9275
ARG_OF_PERICENTER = 253.2584
MEAN_ANOMALY   = 106.7918

EPHEMERIS_TYPE = 0
CLASSIFICATION_TYPE = U
NORAD_CAT_ID   = 67456
ELEMENT_SET_NO = 999
REV_AT_EPOCH   = 582
BSTAR          = .14006E-2
MEAN_MOTION_DOT = .82808E-3
MEAN_MOTION_DDOT = 0

